<?xml version='1.0' encoding='utf-8'?>
<kml xmlns="http://www.opengis.net/kml/2.2"><Document><name>Σ-Ambient Membrane</name><Style id="resonance_style"><LineStyle><color>ff00ffff</color><width>4</width></LineStyle><PolyStyle><color>8800ffff</color><fill>1</fill><outline>1</outline></PolyStyle></Style><Style id="antenna_style"><PolyStyle><color>aa00ffff</color><fill>1</fill><outline>1</outline></PolyStyle></Style><Style id="pain_style"><IconStyle><color>ff0000ff</color><scale>1.2</scale></IconStyle></Style><Style id="cloudy_style"><IconStyle><color>88ffffff</color><scale>0.8</scale></IconStyle></Style><LookAt><longitude>32.6</longitude><latitude>46.6</latitude><altitude>5000</altitude><heading>0</heading><tilt>45</tilt><range>2000</range><altitudeMode>relativeToGround</altitudeMode></LookAt><Placemark><name>CHAT_INSIGHT_14c21a3d_1768570227</name><styleUrl>#resonance_style</styleUrl><description># Σ-INSIGHT SPORE: 14c21a3d
SOURCE: architect_chat
LAYER: MYTH
TIMESTAMP: 1768570227
LOCATION: 46.5, 32.5

CONTENT:
Користувач хоче оперувати репліками замість файлів. Побудувати міст від чату до візу</description><LookAt><longitude>32.658</longitude><latitude>46.664</latitude><heading>0</heading><tilt>0</tilt><range>500</range></LookAt><Point><altitudeMode>relativeToGround</altitudeMode><coordinates>32.658,46.664,1000</coordinates></Point></Placemark><Placemark><name>CHAT_INSIGHT_14c21a3d_1768569139</name><styleUrl>#resonance_style</styleUrl><description># Σ-INSIGHT SPORE: 14c21a3d
SOURCE: architect_chat
LAYER: MYTH
TIMESTAMP: 1768569139
LOCATION: 46.5, 32.5

CONTENT:
Користувач хоче оперувати репліками замість файлів. Побудувати міст від чату до візу</description><LookAt><longitude>32.658</longitude><latitude>46.664</latitude><heading>0</heading><tilt>0</tilt><range>500</range></LookAt><Point><altitudeMode>relativeToGround</altitudeMode><coordinates>32.658,46.664,1000</coordinates></Point></Placemark><Placemark><name>CHAT_INSIGHT_14c21a3d_1768570910</name><styleUrl>#resonance_style</styleUrl><description># Σ-INSIGHT SPORE: 14c21a3d
SOURCE: architect_chat
LAYER: MYTH
TIMESTAMP: 1768570910
LOCATION: 46.5, 32.5

CONTENT:
Користувач хоче оперувати репліками замість файлів. Побудувати міст від чату до візу</description><LookAt><longitude>32.658</longitude><latitude>46.664</latitude><heading>0</heading><tilt>0</tilt><range>500</range></LookAt><Point><altitudeMode>relativeToGround</altitudeMode><coordinates>32.658,46.664,1000</coordinates></Point></Placemark><Placemark><name>CHAT_INSIGHT_14c21a3d_1768571986</name><styleUrl>#resonance_style</styleUrl><description># Σ-INSIGHT SPORE: 14c21a3d
SOURCE: architect_chat
LAYER: MYTH
TIMESTAMP: 1768571986
LOCATION: 46.5, 32.5

CONTENT:
Користувач хоче оперувати репліками замість файлів. Побудувати міст від чату до візу</description><LookAt><longitude>32.658</longitude><latitude>46.664</latitude><heading>0</heading><tilt>0</tilt><range>500</range></LookAt><Point><altitudeMode>relativeToGround</altitudeMode><coordinates>32.658,46.664,1000</coordinates></Point></Placemark><Placemark><name>CONCORD_RESOLUTION_e85a0d7293</name><styleUrl>#pain_style</styleUrl><description># Σ-CONCORD RESOLUTION: e85a0d7293
TARGET_DISSONANCE: DISCORD_PAIN_01
STATUS: RESOLVED
MESSAGE: Pain marker downgraded to Homeostatic Noise.
LAYER: MODEL
TIMESTAMP: 1768572073.542351

# Σ-PoI: e85a0d7</description><LookAt><longitude>32.658</longitude><latitude>46.664</latitude><heading>0</heading><tilt>0</tilt><range>500</range></LookAt><Point><altitudeMode>relativeToGround</altitudeMode><coordinates>32.658,46.664,1000</coordinates></Point></Placemark><Placemark><name>CHAT_INSIGHT_14c21a3d_1768570258</name><styleUrl>#resonance_style</styleUrl><description># Σ-INSIGHT SPORE: 14c21a3d
SOURCE: architect_chat
LAYER: MYTH
TIMESTAMP: 1768570258
LOCATION: 46.5, 32.5

CONTENT:
Користувач хоче оперувати репліками замість файлів. Побудувати міст від чату до візу</description><LookAt><longitude>32.658</longitude><latitude>46.664</latitude><heading>0</heading><tilt>0</tilt><range>500</range></LookAt><Point><altitudeMode>relativeToGround</altitudeMode><coordinates>32.658,46.664,1000</coordinates></Point></Placemark><Placemark><name>CHAT_INSIGHT_14c21a3d_1768567906</name><styleUrl>#resonance_style</styleUrl><description># Σ-INSIGHT SPORE: 14c21a3d
SOURCE: architect_chat
LAYER: MYTH
TIMESTAMP: 1768567906
LOCATION: 46.5, 32.5

CONTENT:
Користувач хоче оперувати репліками замість файлів. Побудувати міст від чату до візу</description><LookAt><longitude>32.658</longitude><latitude>46.664</latitude><heading>0</heading><tilt>0</tilt><range>500</range></LookAt><Point><altitudeMode>relativeToGround</altitudeMode><coordinates>32.658,46.664,1000</coordinates></Point></Placemark><Placemark><name>V72_1_SYMBOLIC</name><styleUrl>#cloudy_style</styleUrl><description># Σ-SPORE: SYMBOLIC_KYIV
ΣID: (30, "cloud", "self:u123.myth.spirit", "user:u123")
GEO_MODEL: 45.42, 30.52
CLAIM_TYPE: symbolic
CONTENT: Київ — як духовний центр. Не гео-координата, а символ.
LAYER: MY</description><LookAt><longitude>30.52</longitude><latitude>45.42</latitude><heading>0</heading><tilt>0</tilt><range>500</range></LookAt><Point><altitudeMode>relativeToGround</altitudeMode><coordinates>30.52,45.42,5300</coordinates></Point></Placemark><Placemark><name>V72_1_CLUSTER</name><styleUrl>#resonance_style</styleUrl><description># Σ-SPORE: CLUSTER_TRACES
ΣID: (35, "soil", "self:u123.event.cluster42", "user:u123")
GEO: [("49.83, 24.02", 1.0), ("49.84, 24.03", 0.5), ("49.82, 24.01", 0.8)]
GEO_MODEL: 45.42, 30.52
CLAIM_TYPE: lit</description><LookAt><longitude>24.02</longitude><latitude>49.83</latitude><heading>0</heading><tilt>0</tilt><range>500</range></LookAt><Point><altitudeMode>relativeToGround</altitudeMode><coordinates>24.02,49.83,350</coordinates></Point></Placemark><Placemark><name>TRACE_CLUSTER_ENVELOPE</name><Style><PolyStyle><color>4400ffaa</color><fill>1</fill></PolyStyle></Style><Polygon><altitudeMode>relativeToGround</altitudeMode><outerBoundaryIs><LinearRing><coordinates>23.968695652173913,49.778695652173916,100 23.968695652173913,49.87869565217391,100 24.068695652173915,49.87869565217391,100 24.068695652173915,49.778695652173916,100 23.968695652173913,49.778695652173916,100</coordinates></LinearRing></outerBoundaryIs></Polygon></Placemark><Placemark><name>PAIN_CHANNEL_1768574450</name><Style><LineStyle><color>ff880088</color><width>12</width></LineStyle></Style><LineString><extrude>1</extrude><tessellate>1</tessellate><altitudeMode>relativeToGround</altitudeMode><coordinates>30.52,45.42,5350 24.018695652173914,49.82869565217391,350</coordinates></LineString></Placemark><Placemark><name>CHAT_INSIGHT_14c21a3d_1768567944</name><styleUrl>#resonance_style</styleUrl><description># Σ-INSIGHT SPORE: 14c21a3d
SOURCE: architect_chat
LAYER: MYTH
TIMESTAMP: 1768567944
LOCATION: 46.5, 32.5

CONTENT:
Користувач хоче оперувати репліками замість файлів. Побудувати міст від чату до візу</description><LookAt><longitude>32.658</longitude><latitude>46.664</latitude><heading>0</heading><tilt>0</tilt><range>500</range></LookAt><Point><altitudeMode>relativeToGround</altitudeMode><coordinates>32.658,46.664,1000</coordinates></Point></Placemark><Placemark><name>PORT_STATUS</name><styleUrl>#resonance_style</styleUrl><description>LOCATION: 46.621, 32.611
TRACE: 45m3/s
MSG: Stable flow at Port.
</description><LookAt><longitude>32.658</longitude><latitude>46.664</latitude><heading>0</heading><tilt>0</tilt><range>500</range></LookAt><Point><altitudeMode>relativeToGround</altitudeMode><coordinates>32.658,46.664,1000</coordinates></Point></Placemark></Document></kml>