<?xml version='1.0' encoding='utf-8'?>
<kml xmlns="http://www.opengis.net/kml/2.2"><Document><name>Σ-Ambient Membrane</name><Style id="resonance_style"><LineStyle><color>ff00ffff</color><width>4</width></LineStyle><PolyStyle><color>8800ffff</color><fill>1</fill><outline>1</outline></PolyStyle></Style><Style id="antenna_style"><PolyStyle><color>aa00ffff</color><fill>1</fill><outline>1</outline></PolyStyle></Style><Style id="pain_style"><IconStyle><color>ff0000ff</color><scale>1.2</scale></IconStyle></Style><Style id="cloudy_style"><IconStyle><color>88ffffff</color><scale>0.8</scale></IconStyle></Style><LookAt><longitude>32.6</longitude><latitude>46.6</latitude><altitude>5000</altitude><heading>0</heading><tilt>45</tilt><range>2000</range><altitudeMode>relativeToGround</altitudeMode></LookAt><Placemark><name>CHAT_INSIGHT_14c21a3d_1768567906</name><styleUrl>#resonance_style</styleUrl><description># Σ-INSIGHT SPORE: 14c21a3d
SOURCE: architect_chat
LAYER: MYTH
TIMESTAMP: 1768567906
LOCATION: 46.5, 32.5

CONTENT:
Користувач хоче оперувати репліками замість файлів. Побудувати міст від чату до візу</description><LookAt><longitude>32.666000000000004</longitude><latitude>46.606</latitude><heading>0</heading><tilt>0</tilt><range>500</range></LookAt><Point><altitudeMode>relativeToGround</altitudeMode><coordinates>32.666000000000004,46.606,1000</coordinates></Point></Placemark><Placemark><name>CHAT_INSIGHT_14c21a3d_1768571986</name><styleUrl>#resonance_style</styleUrl><description># Σ-INSIGHT SPORE: 14c21a3d
SOURCE: architect_chat
LAYER: MYTH
TIMESTAMP: 1768571986
LOCATION: 46.5, 32.5

CONTENT:
Користувач хоче оперувати репліками замість файлів. Побудувати міст від чату до візу</description><LookAt><longitude>32.666000000000004</longitude><latitude>46.606</latitude><heading>0</heading><tilt>0</tilt><range>500</range></LookAt><Point><altitudeMode>relativeToGround</altitudeMode><coordinates>32.666000000000004,46.606,1000</coordinates></Point></Placemark><Placemark><name>CHAT_INSIGHT_14c21a3d_1768570258</name><styleUrl>#resonance_style</styleUrl><description># Σ-INSIGHT SPORE: 14c21a3d
SOURCE: architect_chat
LAYER: MYTH
TIMESTAMP: 1768570258
LOCATION: 46.5, 32.5

CONTENT:
Користувач хоче оперувати репліками замість файлів. Побудувати міст від чату до візу</description><LookAt><longitude>32.666000000000004</longitude><latitude>46.606</latitude><heading>0</heading><tilt>0</tilt><range>500</range></LookAt><Point><altitudeMode>relativeToGround</altitudeMode><coordinates>32.666000000000004,46.606,1000</coordinates></Point></Placemark><Placemark><name>CHAT_INSIGHT_14c21a3d_1768567944</name><styleUrl>#resonance_style</styleUrl><description># Σ-INSIGHT SPORE: 14c21a3d
SOURCE: architect_chat
LAYER: MYTH
TIMESTAMP: 1768567944
LOCATION: 46.5, 32.5

CONTENT:
Користувач хоче оперувати репліками замість файлів. Побудувати міст від чату до візу</description><LookAt><longitude>32.666000000000004</longitude><latitude>46.606</latitude><heading>0</heading><tilt>0</tilt><range>500</range></LookAt><Point><altitudeMode>relativeToGround</altitudeMode><coordinates>32.666000000000004,46.606,1000</coordinates></Point></Placemark><Placemark><name>V71_THOUGHT</name><styleUrl>#cloudy_style</styleUrl><description># Σ-SPORE: THOUGHT_SEA
ΣID: (10, "cloud", "self:u123.intent.sea", "user:u123")
GEO_MODEL: 46.4, 30.7
CONTENT: Хочу поїхати до моря. Це просто намір.
LAYER: MYTH
# Σ-PoI: intent_v71
</description><LookAt><longitude>30.7</longitude><latitude>46.4</latitude><heading>0</heading><tilt>0</tilt><range>500</range></LookAt><Point><altitudeMode>relativeToGround</altitudeMode><coordinates>30.7,46.4,5100</coordinates></Point></Placemark><Placemark><name>CONCORD_RESOLUTION_e85a0d7293</name><styleUrl>#pain_style</styleUrl><description># Σ-CONCORD RESOLUTION: e85a0d7293
TARGET_DISSONANCE: DISCORD_PAIN_01
STATUS: RESOLVED
MESSAGE: Pain marker downgraded to Homeostatic Noise.
LAYER: MODEL
TIMESTAMP: 1768572073.542351

# Σ-PoI: e85a0d7</description><LookAt><longitude>32.666000000000004</longitude><latitude>46.606</latitude><heading>0</heading><tilt>0</tilt><range>500</range></LookAt><Point><altitudeMode>relativeToGround</altitudeMode><coordinates>32.666000000000004,46.606,1000</coordinates></Point></Placemark><Placemark><name>CHAT_INSIGHT_14c21a3d_1768570910</name><styleUrl>#resonance_style</styleUrl><description># Σ-INSIGHT SPORE: 14c21a3d
SOURCE: architect_chat
LAYER: MYTH
TIMESTAMP: 1768570910
LOCATION: 46.5, 32.5

CONTENT:
Користувач хоче оперувати репліками замість файлів. Побудувати міст від чату до візу</description><LookAt><longitude>32.666000000000004</longitude><latitude>46.606</latitude><heading>0</heading><tilt>0</tilt><range>500</range></LookAt><Point><altitudeMode>relativeToGround</altitudeMode><coordinates>32.666000000000004,46.606,1000</coordinates></Point></Placemark><Placemark><name>CHAT_INSIGHT_14c21a3d_1768570227</name><styleUrl>#resonance_style</styleUrl><description># Σ-INSIGHT SPORE: 14c21a3d
SOURCE: architect_chat
LAYER: MYTH
TIMESTAMP: 1768570227
LOCATION: 46.5, 32.5

CONTENT:
Користувач хоче оперувати репліками замість файлів. Побудувати міст від чату до візу</description><LookAt><longitude>32.666000000000004</longitude><latitude>46.606</latitude><heading>0</heading><tilt>0</tilt><range>500</range></LookAt><Point><altitudeMode>relativeToGround</altitudeMode><coordinates>32.666000000000004,46.606,1000</coordinates></Point></Placemark><Placemark><name>V71_PHOTO</name><styleUrl>#resonance_style</styleUrl><description># Σ-SPORE: PHOTO_VALLEY
ΣID: (12, "soil", "self:u123.media.photo1", "user:u123")
GEO: 48.62, 24.57
CONTENT: Фото з відпустки. EXIF валідовано.
LAYER: TRACE
# Σ-PoI: photo_v71
</description><LookAt><longitude>24.57</longitude><latitude>48.62</latitude><heading>0</heading><tilt>0</tilt><range>500</range></LookAt><Point><altitudeMode>relativeToGround</altitudeMode><coordinates>24.57,48.62,120</coordinates></Point></Placemark></Document></kml>