<?xml version='1.0' encoding='utf-8'?>
<kml xmlns="http://www.opengis.net/kml/2.2"><Document><name>Σ-Ambient Membrane</name><Style id="resonance_style"><LineStyle><color>ff00ffff</color><width>4</width></LineStyle><PolyStyle><color>8800ffff</color><fill>1</fill><outline>1</outline></PolyStyle></Style><Style id="antenna_style"><PolyStyle><color>aa00ffff</color><fill>1</fill><outline>1</outline></PolyStyle></Style><Style id="pain_style"><IconStyle><color>ff0000ff</color><scale>1.2</scale></IconStyle></Style><Style id="cloudy_style"><IconStyle><color>88ffffff</color><scale>0.8</scale></IconStyle></Style><LookAt><longitude>32.6</longitude><latitude>46.6</latitude><altitude>5000</altitude><heading>0</heading><tilt>45</tilt><range>2000</range><altitudeMode>relativeToGround</altitudeMode></LookAt><Placemark><name>CONCORD_RESOLUTION_e85a0d7293</name><styleUrl>#pain_style</styleUrl><description># Σ-CONCORD RESOLUTION: e85a0d7293
TARGET_DISSONANCE: DISCORD_PAIN_01
STATUS: RESOLVED
MESSAGE: Pain marker downgraded to Homeostatic Noise.
LAYER: MODEL
TIMESTAMP: 1768572073.542351

# Σ-PoI: e85a0d7</description><LookAt><longitude>32.698</longitude><latitude>46.6</latitude><heading>0</heading><tilt>0</tilt><range>500</range></LookAt><Point><altitudeMode>relativeToGround</altitudeMode><coordinates>32.698,46.6,1000</coordinates></Point></Placemark><Placemark><name>CHAT_INSIGHT_14c21a3d_1768567944</name><styleUrl>#resonance_style</styleUrl><description># Σ-INSIGHT SPORE: 14c21a3d
SOURCE: architect_chat
LAYER: MYTH
TIMESTAMP: 1768567944
LOCATION: 46.5, 32.5

CONTENT:
Користувач хоче оперувати репліками замість файлів. Побудувати міст від чату до візу</description><LookAt><longitude>32.698</longitude><latitude>46.6</latitude><heading>0</heading><tilt>0</tilt><range>500</range></LookAt><Point><altitudeMode>relativeToGround</altitudeMode><coordinates>32.698,46.6,1000</coordinates></Point></Placemark><Placemark><name>CHAT_INSIGHT_14c21a3d_1768570227</name><styleUrl>#resonance_style</styleUrl><description># Σ-INSIGHT SPORE: 14c21a3d
SOURCE: architect_chat
LAYER: MYTH
TIMESTAMP: 1768570227
LOCATION: 46.5, 32.5

CONTENT:
Користувач хоче оперувати репліками замість файлів. Побудувати міст від чату до візу</description><LookAt><longitude>32.698</longitude><latitude>46.6</latitude><heading>0</heading><tilt>0</tilt><range>500</range></LookAt><Point><altitudeMode>relativeToGround</altitudeMode><coordinates>32.698,46.6,1000</coordinates></Point></Placemark><Placemark><name>CHAT_INSIGHT_14c21a3d_1768569139</name><styleUrl>#resonance_style</styleUrl><description># Σ-INSIGHT SPORE: 14c21a3d
SOURCE: architect_chat
LAYER: MYTH
TIMESTAMP: 1768569139
LOCATION: 46.5, 32.5

CONTENT:
Користувач хоче оперувати репліками замість файлів. Побудувати міст від чату до візу</description><LookAt><longitude>32.698</longitude><latitude>46.6</latitude><heading>0</heading><tilt>0</tilt><range>500</range></LookAt><Point><altitudeMode>relativeToGround</altitudeMode><coordinates>32.698,46.6,1000</coordinates></Point></Placemark><Placemark><name>V72_MISMATCH</name><styleUrl>#resonance_style</styleUrl><description># Σ-SPORE: KYIV_LVIV_MISMATCH
ΣID: (20, "sea", "self:u123.event.meeting42", "user:u123")
GEO: 49.83, 24.02
GEO_MODEL: 45.42, 30.52
DISCREPANCY: {"type": "ATTRIBUTION_MISMATCH", "claim": "45.42, 30.52"</description><LookAt><longitude>24.02</longitude><latitude>49.83</latitude><heading>0</heading><tilt>0</tilt><range>500</range></LookAt><Point><altitudeMode>relativeToGround</altitudeMode><coordinates>24.02,49.83,1700</coordinates></Point></Placemark><Placemark><name>PAIN_CHANNEL_1768574044</name><Style><LineStyle><color>ff0000d8</color><width>8</width></LineStyle></Style><LineString><extrude>1</extrude><tessellate>1</tessellate><altitudeMode>relativeToGround</altitudeMode><coordinates>30.52,45.42,5200 24.02,49.83,1700</coordinates></LineString></Placemark></Document></kml>