<?xml version='1.0' encoding='utf-8'?>
<kml xmlns="http://www.opengis.net/kml/2.2"><Document><name>Σ-Intent World</name><Style id="resonance_style"><LineStyle><color>ff00ffff</color><width>4</width></LineStyle><PolyStyle><color>8800ffff</color><fill>1</fill><outline>1</outline></PolyStyle></Style><Style id="antenna_style"><PolyStyle><color>aa00ffff</color><fill>1</fill><outline>1</outline></PolyStyle></Style><Style id="pain_style"><IconStyle><color>ff0000ff</color><scale>1.2</scale></IconStyle></Style><Style id="cloudy_style"><IconStyle><color>88ffffff</color><scale>0.8</scale></IconStyle></Style><Placemark><name>V73_8_LOW.sigma</name><styleUrl>#default</styleUrl><description>ΣID: (17685807, 'sea', 'self:u123.inbox', 'user:u123')
geo_trace: 49.83, 24.02
geo_claim: 49.85, 24.04
CONTENT: Low Energy Minor

DIGEST: 13142552cd59b5a4
SOURCE: daemon:normalizer</description><LookAt><longitude>32.695</longitude><latitude>46.662</latitude><heading>0</heading><tilt>0</tilt><range>500</range></LookAt><Point><altitudeMode>relativeToGround</altitudeMode><coordinates>32.695,46.662,176859570</coordinates></Point></Placemark><Placemark><name>V73_8_SYMBOL.sigma</name><styleUrl>#default</styleUrl><description>ΣID: (17685807, 'sea', 'self:u123.inbox', 'user:u123')
geo_trace: 50.45, 30.52
geo_claim: 44.83, 24.02
CLAIM_TYPE: symbolic
CONTENT: Symbol Case

DIGEST: 59094a010a8df4e7
SOURCE: daemon:normalizer</description><LookAt><longitude>32.695</longitude><latitude>46.662</latitude><heading>0</heading><tilt>0</tilt><range>500</range></LookAt><Point><altitudeMode>relativeToGround</altitudeMode><coordinates>32.695,46.662,176859570</coordinates></Point></Placemark></Document></kml>