<?xml version='1.0' encoding='utf-8'?>
<kml xmlns="http://www.opengis.net/kml/2.2"><Document><name>Σ-World: Gateway v0.1</name><Style id="resonance_style"><LineStyle><color>ff00ffff</color><width>4</width></LineStyle><PolyStyle><color>4400ffff</color></PolyStyle></Style><Style id="pain_style"><IconStyle><color>ff0000ff</color><scale>1.2</scale></IconStyle></Style><Placemark><name>PAIN:TRACE_MISMATCH</name><description>Status: CONFLICT
Pain: 0.60
High intent at V_X1 but no mineral anchor or channel.</description><styleUrl>#pain_style</styleUrl><Point><extrude>1</extrude><altitudeMode>relativeToGround</altitudeMode><coordinates>32.0,46.0,500</coordinates></Point></Placemark><Placemark><name>PAIN:TRACE_MISMATCH</name><description>Status: CONFLICT
Pain: 0.80
High intent at V_X1 but no mineral anchor or channel.</description><styleUrl>#pain_style</styleUrl><Point><extrude>1</extrude><altitudeMode>relativeToGround</altitudeMode><coordinates>32.0,46.0,500</coordinates></Point></Placemark><Placemark><name>PAIN:TRACE_MISMATCH</name><description>Status: CONFLICT
Pain: 1.00
High intent at V_X1 but no mineral anchor or channel.</description><styleUrl>#pain_style</styleUrl><Point><extrude>1</extrude><altitudeMode>relativeToGround</altitudeMode><coordinates>32.0,46.0,500</coordinates></Point></Placemark></Document></kml>