<?xml version='1.0' encoding='utf-8'?>
<kml xmlns="http://www.opengis.net/kml/2.2"><Document><name>Σ-Resonant Test</name><description>Testing 4D focus.</description><Style id="resonance_style"><LineStyle><color>ff00ffff</color><width>4</width></LineStyle><PolyStyle><color>8800ffff</color><fill>1</fill><outline>1</outline></PolyStyle></Style><Style id="antenna_style"><PolyStyle><color>aa00ffff</color><fill>1</fill><outline>1</outline></PolyStyle></Style><Style id="pain_style"><IconStyle><color>ff0000ff</color><scale>1.2</scale></IconStyle></Style><LookAt><longitude>32.6</longitude><latitude>46.6</latitude><altitude>1000</altitude><heading>45</heading><tilt>45</tilt><range>1000</range><altitudeMode>relativeToGround</altitudeMode></LookAt><Placemark><name>Resonance-Alpha</name><styleUrl>#default</styleUrl><LookAt><longitude>32.61</longitude><latitude>46.63</latitude><heading>90</heading><tilt>20</tilt><range>500</range></LookAt><Point><altitudeMode>relativeToGround</altitudeMode><coordinates>32.61,46.63,500</coordinates></Point></Placemark></Document></kml>