<?xml version='1.0' encoding='utf-8'?>
<kml xmlns="http://www.opengis.net/kml/2.2"><Document><name>Σ-Mirror Earth: Sector Zero</name><Style id="resonance_style"><LineStyle><color>ff00ffff</color><width>4</width></LineStyle><PolyStyle><color>8800ffff</color><fill>1</fill><outline>1</outline></PolyStyle></Style><Style id="antenna_style"><PolyStyle><color>aa00ffff</color><fill>1</fill><outline>1</outline></PolyStyle></Style><Style id="pain_style"><IconStyle><color>ff0000ff</color><scale>1.2</scale></IconStyle></Style><Placemark><name>SILO_ANTENNA_01</name><styleUrl>#antenna_style</styleUrl><Polygon><extrude>1</extrude><altitudeMode>relativeToGround</altitudeMode><outerBoundaryIs><LinearRing><coordinates>32.611,46.621,80 32.612,46.621,80 32.612,46.622,80 32.611,46.622,80</coordinates></LinearRing></outerBoundaryIs></Polygon></Placemark><Placemark><name>ADMIN_ANTENNA_01</name><styleUrl>#antenna_style</styleUrl><Polygon><extrude>1</extrude><altitudeMode>relativeToGround</altitudeMode><outerBoundaryIs><LinearRing><coordinates>32.614,46.623,120 32.615,46.623,120 32.615,46.624,120 32.614,46.624,120</coordinates></LinearRing></outerBoundaryIs></Polygon></Placemark><Placemark><name>DNIEPER_DATA_BUS</name><styleUrl>#resonance_style</styleUrl><LineString><extrude>0</extrude><tessellate>1</tessellate><altitudeMode>relativeToGround</altitudeMode><coordinates>32.61,46.62,20 32.615,46.625,20 32.62,46.63,20</coordinates></LineString></Placemark><Placemark><name>PAIN:TRACE_MISMATCH</name><description>Status: CONFLICT
Pain: 0.60
High intent at PORT_A1 but no mineral anchor or channel.</description><styleUrl>#pain_style</styleUrl><Point><extrude>1</extrude><altitudeMode>relativeToGround</altitudeMode><coordinates>32.6,46.6,500</coordinates></Point></Placemark><Placemark><name>PAIN:TRACE_MISMATCH</name><description>Status: CONFLICT
Pain: 0.80
High intent at PORT_A1 but no mineral anchor or channel.</description><styleUrl>#pain_style</styleUrl><Point><extrude>1</extrude><altitudeMode>relativeToGround</altitudeMode><coordinates>32.6,46.6,500</coordinates></Point></Placemark><Placemark><name>PAIN:TRACE_MISMATCH</name><description>Status: CONFLICT
Pain: 1.00
High intent at PORT_A1 but no mineral anchor or channel.</description><styleUrl>#pain_style</styleUrl><Point><extrude>1</extrude><altitudeMode>relativeToGround</altitudeMode><coordinates>32.6,46.6,500</coordinates></Point></Placemark><Placemark><name>PAIN:TRACE_MISMATCH</name><description>Status: CONFLICT
Pain: 1.20
High intent at PORT_A1 but no mineral anchor or channel.</description><styleUrl>#pain_style</styleUrl><Point><extrude>1</extrude><altitudeMode>relativeToGround</altitudeMode><coordinates>32.6,46.6,500</coordinates></Point></Placemark><Placemark><name>PAIN:TRACE_MISMATCH</name><description>Status: CONFLICT
Pain: 1.40
High intent at PORT_A1 but no mineral anchor or channel.</description><styleUrl>#pain_style</styleUrl><Point><extrude>1</extrude><altitudeMode>relativeToGround</altitudeMode><coordinates>32.6,46.6,500</coordinates></Point></Placemark><Placemark><name>PAIN:TRACE_MISMATCH</name><description>Status: CONFLICT
Pain: 1.60
High intent at PORT_A1 but no mineral anchor or channel.</description><styleUrl>#pain_style</styleUrl><Point><extrude>1</extrude><altitudeMode>relativeToGround</altitudeMode><coordinates>32.6,46.6,500</coordinates></Point></Placemark><Placemark><name>PAIN:TRACE_MISMATCH</name><description>Status: CONFLICT
Pain: 1.80
High intent at PORT_A1 but no mineral anchor or channel.</description><styleUrl>#pain_style</styleUrl><Point><extrude>1</extrude><altitudeMode>relativeToGround</altitudeMode><coordinates>32.6,46.6,500</coordinates></Point></Placemark><Placemark><name>PAIN:TRACE_MISMATCH</name><description>Status: CONFLICT
Pain: 2.00
High intent at PORT_A1 but no mineral anchor or channel.</description><styleUrl>#pain_style</styleUrl><Point><extrude>1</extrude><altitudeMode>relativeToGround</altitudeMode><coordinates>32.6,46.6,500</coordinates></Point></Placemark></Document></kml>