<?xml version='1.0' encoding='utf-8'?>
<kml xmlns="http://www.opengis.net/kml/2.2"><Document><name>Σ-Unified v0.1</name><Style id="resonance_style"><LineStyle><color>ff00ffff</color><width>4</width></LineStyle><PolyStyle><color>8800ffff</color><fill>1</fill><outline>1</outline></PolyStyle></Style><Style id="antenna_style"><PolyStyle><color>aa00ffff</color><fill>1</fill><outline>1</outline></PolyStyle></Style><Style id="pain_style"><IconStyle><color>ff0000ff</color><scale>1.2</scale></IconStyle></Style><Placemark><name>PAIN:TRACE_MISMATCH</name><description>Status: CONFLICT
Pain: 0.60
High intent at CRACK_01 but no mineral anchor or channel.</description><styleUrl>#pain_style</styleUrl><Point><extrude>1</extrude><altitudeMode>relativeToGround</altitudeMode><coordinates>32.620000000000005,46.620000000000005,500</coordinates></Point></Placemark><Placemark><name>PAIN:TRACE_MISMATCH</name><description>Status: CONFLICT
Pain: 0.80
High intent at CRACK_01 but no mineral anchor or channel.</description><styleUrl>#pain_style</styleUrl><Point><extrude>1</extrude><altitudeMode>relativeToGround</altitudeMode><coordinates>32.620000000000005,46.620000000000005,500</coordinates></Point></Placemark><Placemark><name>PAIN:TRACE_MISMATCH</name><description>Status: CONFLICT
Pain: 1.00
High intent at CRACK_01 but no mineral anchor or channel.</description><styleUrl>#pain_style</styleUrl><Point><extrude>1</extrude><altitudeMode>relativeToGround</altitudeMode><coordinates>32.620000000000005,46.620000000000005,500</coordinates></Point></Placemark><Placemark><name>ANTENNA_CORE</name><styleUrl>#antenna_style</styleUrl><Polygon><extrude>1</extrude><altitudeMode>relativeToGround</altitudeMode><outerBoundaryIs><LinearRing><coordinates>32.6,46.6,100 32.61,46.6,100 32.61,46.61,100 32.6,46.61,100</coordinates></LinearRing></outerBoundaryIs></Polygon></Placemark></Document></kml>