<?xml version='1.0' encoding='utf-8'?>
<kml xmlns="http://www.opengis.net/kml/2.2"><Document><name>Stellar Jump View</name><description>Projected Frame: NCP_ORIENTED</description><Style id="resonance_style"><LineStyle><color>ff00ffff</color><width>4</width></LineStyle><PolyStyle><color>8800ffff</color><fill>1</fill><outline>1</outline></PolyStyle></Style><Style id="antenna_style"><PolyStyle><color>aa00ffff</color><fill>1</fill><outline>1</outline></PolyStyle></Style><Style id="pain_style"><IconStyle><color>ff0000ff</color><scale>1.2</scale></IconStyle></Style><Style id="cloudy_style"><IconStyle><color>88ffffff</color><scale>0.8</scale></IconStyle></Style><Placemark><name>Jump_Apex</name><styleUrl>#default</styleUrl><description>Stellar RA:92.6043</description><LookAt><longitude>32.6425</longitude><latitude>46.6178</latitude><heading>0</heading><tilt>0</tilt><range>500</range></LookAt><Point><altitudeMode>relativeToGround</altitudeMode><coordinates>32.6425,46.6178,740</coordinates></Point></Placemark></Document></kml>