<?xml version='1.0' encoding='utf-8'?>
<kml xmlns="http://www.opengis.net/kml/2.2"><Document><name>Σ-V78 Resonance Mapping</name><description>Fiber: From Genesis to Resonance 2032</description><Style id="resonance_style"><LineStyle><color>ff00ffff</color><width>4</width></LineStyle><PolyStyle><color>8800ffff</color><fill>1</fill><outline>1</outline></PolyStyle></Style><Style id="antenna_style"><PolyStyle><color>aa00ffff</color><fill>1</fill><outline>1</outline></PolyStyle></Style><Style id="pain_style"><IconStyle><color>ff0000ff</color><scale>1.2</scale></IconStyle></Style><Style id="cloudy_style"><IconStyle><color>88ffffff</color><scale>0.8</scale></IconStyle></Style><Placemark><name>Genesis_Root</name><styleUrl>#resonance_style</styleUrl><description>Root Intent</description><LookAt><longitude>32.6818</longitude><latitude>46.609</latitude><heading>0</heading><tilt>0</tilt><range>500</range></LookAt><Point><altitudeMode>relativeToGround</altitudeMode><coordinates>32.6818,46.609,-12088290</coordinates></Point></Placemark><Placemark><name>Lattice_Sync_2024</name><styleUrl>#resonance_style</styleUrl><description>Lattice Stabilization</description><LookAt><longitude>32.6818</longitude><latitude>46.6747</latitude><heading>0</heading><tilt>0</tilt><range>500</range></LookAt><Point><altitudeMode>relativeToGround</altitudeMode><coordinates>32.6818,46.6747,7884500</coordinates></Point></Placemark><Placemark><name>Future_Intent_Vector</name><styleUrl>#cloudy_style</styleUrl><description>Projection: 0.56 to 2032</description><LookAt><longitude>32.6818</longitude><latitude>46.6742</latitude><heading>0</heading><tilt>0</tilt><range>500</range></LookAt><Point><altitudeMode>relativeToGround</altitudeMode><coordinates>32.6818,46.6742,8808000</coordinates></Point></Placemark><Placemark><name>Future_Resonance_Path</name><styleUrl>#resonance_style</styleUrl><LineString><extrude>0</extrude><tessellate>1</tessellate><altitudeMode>relativeToGround</altitudeMode><coordinates>32.6,46.6,8000 32.7,46.7,8000</coordinates></LineString></Placemark><Folder><name>MAGNETIC_DISCHARGE_POLE</name><Placemark><styleUrl>#cloudy_style</styleUrl><LineString><tessellate>1</tessellate><altitudeMode>relativeToGround</altitudeMode><coordinates>32.65,46.6,500 32.649240387650615,46.60868240888335,500 32.646984631039295,46.61710100716628,500 32.64330127018923,46.625,500 32.63830222215595,46.632139380484325,500 32.632139380484325,46.63830222215595,500 32.625,46.64330127018923,500 32.61710100716628,46.646984631039295,500 32.60868240888335,46.649240387650615,500 32.6,46.65,500 32.591317591116656,46.649240387650615,500 32.58289899283372,46.646984631039295,500 32.575,46.64330127018923,500 32.56786061951568,46.63830222215595,500 32.56169777784405,46.632139380484325,500 32.556698729810776,46.625,500 32.55301536896071,46.61710100716628,500 32.55075961234939,46.60868240888335,500 32.550000000000004,46.6,500 32.55075961234939,46.591317591116656,500 32.55301536896071,46.58289899283372,500 32.556698729810776,46.575,500 32.56169777784405,46.56786061951568,500 32.56786061951568,46.56169777784405,500 32.575,46.556698729810776,500 32.58289899283372,46.55301536896071,500 32.591317591116656,46.55075961234939,500 32.6,46.550000000000004,500 32.60868240888335,46.55075961234939,500 32.61710100716628,46.55301536896071,500 32.625,46.556698729810776,500 32.632139380484325,46.56169777784405,500 32.63830222215595,46.56786061951568,500 32.64330127018923,46.575,500 32.646984631039295,46.58289899283372,500 32.649240387650615,46.591317591116656,500 32.65,46.6,500</coordinates></LineString></Placemark><Placemark><styleUrl>#cloudy_style</styleUrl><LineString><tessellate>1</tessellate><altitudeMode>relativeToGround</altitudeMode><coordinates>32.7,46.6,500 32.69848077530122,46.61736481776669,500 32.69396926207859,46.634202014332566,500 32.686602540378445,46.65,500 32.6766044443119,46.66427876096866,500 32.66427876096866,46.6766044443119,500 32.65,46.686602540378445,500 32.634202014332566,46.69396926207859,500 32.61736481776669,46.69848077530122,500 32.6,46.7,500 32.58263518223331,46.69848077530122,500 32.56579798566744,46.69396926207859,500 32.550000000000004,46.686602540378445,500 32.535721239031346,46.6766044443119,500 32.523395555688104,46.66427876096866,500 32.51339745962156,46.65,500 32.506030737921414,46.634202014332566,500 32.50151922469878,46.61736481776669,500 32.5,46.6,500 32.50151922469878,46.58263518223331,500 32.506030737921414,46.56579798566744,500 32.51339745962156,46.550000000000004,500 32.523395555688104,46.535721239031346,500 32.535721239031346,46.523395555688104,500 32.550000000000004,46.51339745962156,500 32.56579798566744,46.506030737921414,500 32.58263518223331,46.50151922469878,500 32.6,46.5,500 32.61736481776669,46.50151922469878,500 32.634202014332566,46.506030737921414,500 32.65,46.51339745962156,500 32.66427876096866,46.523395555688104,500 32.6766044443119,46.535721239031346,500 32.686602540378445,46.550000000000004,500 32.69396926207859,46.56579798566744,500 32.69848077530122,46.58263518223331,500 32.7,46.6,500</coordinates></LineString></Placemark><Placemark><styleUrl>#cloudy_style</styleUrl><LineString><tessellate>1</tessellate><altitudeMode>relativeToGround</altitudeMode><coordinates>32.75,46.6,500 32.747721162951834,46.626047226650044,500 32.74095389311789,46.651303021498855,500 32.72990381056767,46.675000000000004,500 32.71490666646785,46.69641814145298,500 32.69641814145298,46.71490666646785,500 32.675000000000004,46.72990381056767,500 32.651303021498855,46.74095389311789,500 32.626047226650044,46.747721162951834,500 32.6,46.75,500 32.57395277334996,46.747721162951834,500 32.54869697850115,46.74095389311789,500 32.525,46.72990381056767,500 32.50358185854702,46.71490666646785,500 32.485093333532156,46.69641814145298,500 32.47009618943233,46.675000000000004,500 32.45904610688211,46.651303021498855,500 32.45227883704817,46.626047226650044,500 32.45,46.6,500 32.45227883704817,46.57395277334996,500 32.45904610688211,46.54869697850115,500 32.47009618943233,46.525,500 32.485093333532156,46.50358185854702,500 32.50358185854702,46.485093333532156,500 32.525,46.47009618943233,500 32.54869697850115,46.45904610688211,500 32.57395277334996,46.45227883704817,500 32.6,46.45,500 32.626047226650044,46.45227883704817,500 32.651303021498855,46.45904610688211,500 32.675000000000004,46.47009618943233,500 32.69641814145298,46.485093333532156,500 32.71490666646785,46.50358185854702,500 32.72990381056767,46.525,500 32.74095389311789,46.54869697850115,500 32.747721162951834,46.57395277334996,500 32.75,46.6,500</coordinates></LineString></Placemark><Placemark><styleUrl>#cloudy_style</styleUrl><LineString><tessellate>1</tessellate><altitudeMode>relativeToGround</altitudeMode><coordinates>32.800000000000004,46.6,500 32.79696155060244,46.63472963553339,500 32.787938524157184,46.66840402866514,500 32.77320508075689,46.7,500 32.753208888623796,46.72855752193731,500 32.72855752193731,46.753208888623796,500 32.7,46.77320508075689,500 32.66840402866514,46.787938524157184,500 32.63472963553339,46.79696155060244,500 32.6,46.800000000000004,500 32.56527036446661,46.79696155060244,500 32.531595971334866,46.787938524157184,500 32.5,46.77320508075689,500 32.47144247806269,46.753208888623796,500 32.44679111137621,46.72855752193731,500 32.426794919243115,46.7,500 32.41206147584282,46.66840402866514,500 32.40303844939756,46.63472963553339,500 32.4,46.6,500 32.40303844939756,46.56527036446661,500 32.41206147584282,46.531595971334866,500 32.426794919243115,46.5,500 32.44679111137621,46.47144247806269,500 32.47144247806269,46.44679111137621,500 32.5,46.426794919243115,500 32.531595971334866,46.41206147584282,500 32.56527036446661,46.40303844939756,500 32.6,46.4,500 32.63472963553339,46.40303844939756,500 32.66840402866514,46.41206147584282,500 32.7,46.426794919243115,500 32.72855752193731,46.44679111137621,500 32.753208888623796,46.47144247806269,500 32.77320508075689,46.5,500 32.787938524157184,46.531595971334866,500 32.79696155060244,46.56527036446661,500 32.800000000000004,46.6,500</coordinates></LineString></Placemark><Placemark><styleUrl>#cloudy_style</styleUrl><LineString><tessellate>1</tessellate><altitudeMode>relativeToGround</altitudeMode><coordinates>32.85,46.6,500 32.84620193825305,46.643412044416735,500 32.83492315519648,46.68550503583142,500 32.81650635094611,46.725,500 32.791511110779744,46.760696902421635,500 32.760696902421635,46.791511110779744,500 32.725,46.81650635094611,500 32.68550503583142,46.83492315519648,500 32.643412044416735,46.84620193825305,500 32.6,46.85,500 32.55658795558327,46.84620193825305,500 32.514494964168584,46.83492315519648,500 32.475,46.81650635094611,500 32.43930309757837,46.791511110779744,500 32.40848888922026,46.760696902421635,500 32.38349364905389,46.725,500 32.365076844803525,46.68550503583142,500 32.35379806174695,46.643412044416735,500 32.35,46.6,500 32.35379806174695,46.55658795558327,500 32.365076844803525,46.514494964168584,500 32.38349364905389,46.475,500 32.40848888922026,46.43930309757837,500 32.43930309757837,46.40848888922026,500 32.475,46.38349364905389,500 32.514494964168584,46.365076844803525,500 32.55658795558327,46.35379806174695,500 32.6,46.35,500 32.643412044416735,46.35379806174695,500 32.68550503583142,46.365076844803525,500 32.725,46.38349364905389,500 32.760696902421635,46.40848888922026,500 32.791511110779744,46.43930309757837,500 32.81650635094611,46.475,500 32.83492315519648,46.514494964168584,500 32.84620193825305,46.55658795558327,500 32.85,46.6,500</coordinates></LineString></Placemark></Folder></Document></kml>